[{"OBJECT_NAME":"YAOGAN-30 04C","OBJECT_ID":"2017-085C","EPOCH":"2026-03-09T23:40:14.590272","MEAN_MOTION":15.02217282,"ECCENTRICITY":0.00053586,"INCLINATION":34.9965,"RA_OF_ASC_NODE":34.9402,"ARG_OF_PERICENTER":340.2354,"MEAN_ANOMALY":19.8146,"EPHEMERIS_TYPE":0,"CLASSIFICATION_TYPE":"U","NORAD_CAT_ID":43083,"ELEMENT_SET_NO":999,"REV_AT_EPOCH":44782,"BSTAR":0.0003185703,"MEAN_MOTION_DOT":4.258e-5,"MEAN_MOTION_DDOT":0},{"OBJECT_NAME":"COSMOS 2251 DEB","OBJECT_ID":"1993-036BRU","EPOCH":"2026-02-21T14:09:45.153216","MEAN_MOTION":14.99001579,"ECCENTRICITY":0.0017259,"INCLINATION":74.0061,"RA_OF_ASC_NODE":146.9269,"ARG_OF_PERICENTER":277.3195,"MEAN_ANOMALY":147.2685,"EPHEMERIS_TYPE":0,"CLASSIFICATION_TYPE":"U","NORAD_CAT_ID":38062,"ELEMENT_SET_NO":999,"REV_AT_EPOCH":64090,"BSTAR":0.0019091,"MEAN_MOTION_DOT":0.00023247,"MEAN_MOTION_DDOT":0}]
